KUIPER-00074            
1 64821U 25151F   25256.91670139 -.00025657  00000+0 -84661-3 0  9995
2 64821  51.8812   0.0504 0008513   5.2445 151.8088 15.30520708  3706
KUIPER-00075            
1 64822U 25151G   25256.58944241  .00038333  00000+0  10299-2 0  9995
2 64822  51.8790   1.2300 0005683 351.8482   8.2411 15.37530657  9112
KUIPER-00076            
1 64823U 25151H   25256.91670139 -.01546481  00000+0 -67772-1 0  9993
2 64823  51.8813   0.5117 0006538  16.6321 302.6589 15.24577306  5228
KUIPER-00077            
1 64824U 25151J   25256.91670139 -.01589232  00000+0 -10217+0 0  9995
2 64824  51.8901   2.2385 0006540 331.6604 243.0549 15.11468685  5858
KUIPER-00078            
1 64825U 25151K   25256.91670139 -.00579466  00000+0 -30514-1 0  9997
2 64825  51.8860   1.2845 0011260  44.4371 265.6854 15.17396685  4829
KUIPER-00079            
1 64826U 25151L   25256.91670139 -.00967010  00000+0 -69274-1 0  9999
2 64826  51.8962   3.5461 0010390   6.0413 194.5713 15.06940742  4311
KUIPER-00080            
1 64827U 25151M   25256.91670139 -.01566517  00000+0 -11598+0 0  9992
2 64827  51.8941   3.5366 0006302  32.3143 269.9354 15.06307223  4671
KUIPER-00082            
1 64828U 25151N   25256.91670139 -.00526183  00000+0 -16327-1 0  9994
2 64828  51.8796 359.7727 0005888   5.8332 304.0025 15.34997861  5727
KUIPER-00083            
1 64829U 25151P   25256.91670139 -.01059439  00000+0 -57956-1 0  9994
2 64829  51.8807   1.3245 0008687   6.9939 221.4547 15.16859505  5229
KUIPER-00084            
1 64830U 25151Q   25256.91670139 -.00046442  00000+0 -50450-2 0  9998
2 64830  51.8972   7.3220 0009607   1.1352 101.9478 14.87746219  5782
KUIPER-00085            
1 64831U 25151R   25256.91670139 -.00033563  00000+0 -10406-2 0  9996
2 64831  51.8802 359.7455 0006838 358.3727 314.5479 15.32663136  5257
KUIPER-00086            
1 64832U 25151S   25256.91670139 -.00706580  00000+0 -45930-1 0  9992
2 64832  51.8916   2.3430 0009497   7.9884  68.6879 15.10062675  4609
KUIPER-00087            
1 64833U 25151T   25256.60320892  .00014847  00000+0  41441-3 0  9998
2 64833  51.8807   1.3169 0006660 356.4943   3.5996 15.36929810  9103
KUIPER-00089            
1 64834U 25151U   25256.54817654  .00027136  00000+0  75266-3 0  9996
2 64834  51.8822   1.6980 0007708  10.9237 349.1915 15.36705012  9103
KUIPER-00090            
1 64835U 25151V   25256.55789089  .00039536  00000+0  10997-2 0  9994
2 64835  51.8815   1.7573 0007477  11.8172 348.2989 15.36429485  9104
KUIPER-00091            
1 64836U 25151W   25256.60083561  .00015600  00000+0  43552-3 0  9993
2 64836  51.8798   1.2952 0007252 355.1917   4.8999 15.36878227  9112
KUIPER-00092            
1 64837U 25151X   25256.91670139 -.01283998  00000+0 -49073-1 0  9993
2 64837  51.8821 359.9831 0008951 352.4055 219.8851 15.28955454  5670
KUIPER-00093            
1 64838U 25151Y   25256.91670139 -.01483515  00000+0 -69624-1 0  9995
2 64838  51.8846   0.5944 0011377  15.1175 223.8302 15.22093524  2694
KUIPER-00094            
1 64839U 25151Z   25256.60211989  .00015795  00000+0  43838-3 0  9995
2 64839  51.8798   1.3011 0007242   1.6453 358.4557 15.37052187  9117
KUIPER-00081            
1 65132U 25171A   25256.70336767  .00028575  00000+0  79920-3 0  9998
2 65132  51.8735 244.5836 0004437 240.5972 119.4572 15.36434703  6356
KUIPER-00088            
1 65133U 25171B   25256.70368707  .00031076  00000+0  86574-3 0  9991
2 65133  51.8746 244.5870 0003991 235.5929 124.4680 15.36514877  6354
KUIPER-00095            
1 65134U 25171C   25256.26164680  .00040191  00000+0  11414-2 0  9995
2 65134  51.8732 246.8678 0002889 269.3599  90.7056 15.35793129  6286
KUIPER-00096            
1 65135U 25171D   25256.25633706  .00037078  00000+0  10444-2 0  9997
2 65135  51.8741 246.8306 0003507 256.6097 103.4498 15.36084765  6287
KUIPER-00097            
1 65136U 25171E   25256.58842036  .00015421  00000+0  44844-3 0  9992
2 65136  51.8761 245.3148 0004281 277.4579  82.5921 15.35622928  6325
KUIPER-00098            
1 65137U 25171F   25256.70420104  .00029607  00000+0  83056-3 0  9994
2 65137  51.8753 244.5887 0004427 236.5372 123.5192 15.36322089  5698
KUIPER-00099            
1 65138U 25171G   25256.70658601  .00035942  00000+0  10053-2 0  9995
2 65138  51.8748 244.6067 0004016 241.1819 118.8764 15.36317103  6342
KUIPER-00100            
1 65139U 25171H   25256.25554097  .00037407  00000+0  10553-2 0  9993
2 65139  51.8769 246.8269 0003869 254.9159 105.1399 15.36031563  6276
KUIPER-00102            
1 65140U 25171J   25256.26209486  .00027137  00000+0  77775-3 0  9994
2 65140  51.8733 246.8674 0003464 270.7784  89.2805 15.35701154  6273
KUIPER-00103            
1 65141U 25171K   25256.45284933  .00078281  00000+0  21841-2 0  9994
2 65141  51.8769 245.8977 0004054 268.1345  91.9177 15.36041187  6308
KUIPER-00104            
1 65142U 25171L   25256.33334491  .00030532  00000+0  86630-3 0  9992
2 65142  51.8763 246.4719 0003525 264.5606 160.6923 15.35953723  4708
KUIPER-00105            
1 65143U 25171M   25256.70082309  .00042467  00000+0  11730-2 0  9990
2 65143  51.8754 244.5666 0004349 232.0704 127.9889 15.36630169  6350
KUIPER-00106            
1 65144U 25171N   25256.38284702  .00029563  00000+0  83167-3 0  9992
2 65144  51.8763 246.1814 0004306 253.2850 106.7664 15.36235075  6302
KUIPER-00107            
1 65145U 25171P   25256.38447658  .00043124  00000+0  12094-2 0  9993
2 65145  51.8718 246.1980 0003940 250.4481 109.6080 15.36149740  6306
KUIPER-00108            
1 65146U 25171Q   25256.26284352  .00035500  00000+0  10127-2 0  9995
2 65146  51.8751 246.8747 0003965 273.8317  86.2215 15.35707404  6289
KUIPER-00109            
1 65147U 25171R   25256.70598296  .00021916  00000+0  61863-3 0  9990
2 65147  51.8730 244.5975 0003188 234.2711 125.7979 15.36304922  6343
KUIPER-00110            
1 65148U 25171S   25256.38192392  .00026469  00000+0  74509-3 0  9991
2 65148  51.8769 246.1814 0004030 247.3084 112.7476 15.36275708  6292
KUIPER-00111            
1 65149U 25171T   25256.91670139 -.00163447  00000+0 -52785-2 0  9992
2 65149  51.8776 243.7210 0004433 270.0713 112.7146 15.32210001  4937
KUIPER-00112            
1 65150U 25171U   25256.26393372  .00036794  00000+0  10496-2 0  9998
2 65150  51.8769 246.8875 0003443 281.3662  78.6937 15.35692770  6277
KUIPER-00114            
1 65151U 25171V   25256.91670139 -.00571984  00000+0 -24482-1 0  9996
2 65151  51.8816 244.0904 0003631 263.5274 268.8047 15.24487837  5597
KUIPER-00115            
1 65152U 25171W   25256.57773463  .00015618  00000+0  44506-3 0  9999
2 65152  51.8754 245.2370 0004209 244.4515 115.6037 15.36248769  6329
KUIPER-00116            
1 65153U 25171X   25256.91670139 -.00290510  00000+0 -10200-1 0  9994
2 65153  51.8778 243.7613 0003207 260.8481  88.2362 15.30108713  5367
KUIPER-00118            
1 65154U 25171Y   25256.91670139 -.00029693  00000+0 -11220-2 0  9991
2 65154  51.8790 244.0030 0003540 263.6412 344.8073 15.26231866  5860
KUIPER-00119            
1 65155U 25171Z   25256.70344209  .00029202  00000+0  81613-3 0  9993
2 65155  51.8745 244.5825 0004562 244.3766 115.6749 15.36445751  6340
